start=new Date('2022-01-31T00:00:00.000Z').valueOf();
sats=[{"PERIOD":"95.592","TLE_LINE1":"1 44741U 19074AE  22030.87117733  .00002560  00000-0  19068-3 0  9995","OBJECT_NAME":"STARLINK-1036","FILE":"3287903","OBJECT_ID":"2019-074AE","MEAN_ANOMALY":"292.7447","RCS_SIZE":"LARGE","CENTER_NAME":"EARTH","OBJECT_TYPE":"PAYLOAD","REF_FRAME":"TEME","MEAN_MOTION":"15.06402298","PERIAPSIS":"546.090","MEAN_MOTION_DDOT":"0.0000000000000","CLASSIFICATION_TYPE":"U","LAUNCH_DATE":"2019-11-11","EPOCH":"2022-01-30T20:54:29.721312","NORAD_CAT_ID":"44741","SEMIMAJOR_AXIS":"6925.342","MEAN_ELEMENT_THEORY":"SGP4","BSTAR":"0.00019068000000","ECCENTRICITY":"0.00016120","ELEMENT_SET_NO":"999","TLE_LINE2":"2 44741  53.0536  95.0734 0001612  67.3713 292.7447 15.06402298122567","REV_AT_EPOCH":"12256","COUNTRY_CODE":"US","MEAN_MOTION_DOT":"0.00002560","SITE":"AFETR","GP_ID":"194980105","TIME_SYSTEM":"UTC","ARG_OF_PERICENTER":"67.3713","APOAPSIS":"548.323","EPHEMERIS_TYPE":"0","DECAY_DATE":null,"RA_OF_ASC_NODE":"95.0734","INCLINATION":"53.0536"},{"LAUNCH_DATE":"2019-11-11","MEAN_MOTION_DDOT":"0.0000000000000","CLASSIFICATION_TYPE":"U","REF_FRAME":"TEME","OBJECT_TYPE":"PAYLOAD","CENTER_NAME":"EARTH","PERIAPSIS":"533.573","MEAN_MOTION":"15.10406644","FILE":"3287903","OBJECT_NAME":"STARLINK-1037","TLE_LINE1":"1 44742U 19074AF  22030.87680059  .00010027  00000-0  62015-3 0  9999","PERIOD":"95.339","RCS_SIZE":"LARGE","MEAN_ANOMALY":"289.6054","OBJECT_ID":"2019-074AF","DECAY_DATE":null,"EPHEMERIS_TYPE":"0","APOAPSIS":"536.349","ARG_OF_PERICENTER":"70.5153","TIME_SYSTEM":"UTC","RA_OF_ASC_NODE":"86.2982","INCLINATION":"52.9968","MEAN_MOTION_DOT":"0.00010027","GP_ID":"194980355","SITE":"AFETR","COUNTRY_CODE":"US","REV_AT_EPOCH":"12265","TLE_LINE2":"2 44742  52.9968  86.2982 0002008  70.5153 289.6054 15.10406644122659","EPOCH":"2022-01-30T21:02:35.570976","BSTAR":"0.00062015000000","ECCENTRICITY":"0.00020080","ELEMENT_SET_NO":"999","SEMIMAJOR_AXIS":"6913.096","NORAD_CAT_ID":"44742","MEAN_ELEMENT_THEORY":"SGP4"},{"MEAN_MOTION_DOT":"0.00000161","GP_ID":"194981107","SITE":"AFETR","DECAY_DATE":null,"APOAPSIS":"548.302","EPHEMERIS_TYPE":"0","ARG_OF_PERICENTER":"64.9962","TIME_SYSTEM":"UTC","RA_OF_ASC_NODE":"114.8468","INCLINATION":"53.0547","EPOCH":"2022-01-30T22:06:08.710560","BSTAR":"0.00002971900000","ELEMENT_SET_NO":"999","ECCENTRICITY":"0.00015550","NORAD_CAT_ID":"44743","SEMIMAJOR_AXIS":"6925.360","MEAN_ELEMENT_THEORY":"SGP4","COUNTRY_CODE":"US","REV_AT_EPOCH":"12238","TLE_LINE2":"2 44743  53.0547 114.8468 0001555  64.9962 295.1188 15.06396295122388","MEAN_MOTION_DDOT":"0.0000000000000","CLASSIFICATION_TYPE":"U","LAUNCH_DATE":"2019-11-11","FILE":"3287903","OBJECT_NAME":"STARLINK-1038","TLE_LINE1":"1 44743U 19074AG  22030.92093415  .00000161  00000-0  29719-4 0  9993","PERIOD":"95.592","RCS_SIZE":"LARGE","MEAN_ANOMALY":"295.1188","OBJECT_ID":"2019-074AG","REF_FRAME":"TEME","OBJECT_TYPE":"PAYLOAD","CENTER_NAME":"EARTH","MEAN_MOTION":"15.06396295","PERIAPSIS":"546.148"},{"OBJECT_NAME":"STARLINK-1039","FILE":"3287903","PERIOD":"95.592","TLE_LINE1":"1 44744U 19074AH  22030.60025152  .00002950  00000-0  21685-3 0  9993","OBJECT_ID":"2019-074AH","MEAN_ANOMALY":"289.9281","RCS_SIZE":"LARGE","REF_FRAME":"TEME","CENTER_NAME":"EARTH","OBJECT_TYPE":"PAYLOAD","MEAN_MOTION":"15.06405038","PERIAPSIS":"546.180","MEAN_MOTION_DDOT":"0.0000000000000","CLASSIFICATION_TYPE":"U","LAUNCH_DATE":"2019-11-11","EPOCH":"2022-01-30T14:24:21.731328","SEMIMAJOR_AXIS":"6925.333","NORAD_CAT_ID":"44744","MEAN_ELEMENT_THEORY":"SGP4","BSTAR":"0.00021685000000","ELEMENT_SET_NO":"999","ECCENTRICITY":"0.00014700","REV_AT_EPOCH":"12224","TLE_LINE2":"2 44744  53.0536 116.2919 0001470  70.1866 289.9281 15.06405038122248","COUNTRY_CODE":"US","MEAN_MOTION_DOT":"0.00002950","GP_ID":"194981857","SITE":"AFETR","DECAY_DATE":null,"TIME_SYSTEM":"UTC","EPHEMERIS_TYPE":"0","APOAPSIS":"548.216","ARG_OF_PERICENTER":"70.1866","RA_OF_ASC_NODE":"116.2919","INCLINATION":"53.0536"},{"COUNTRY_CODE":"US","TLE_LINE2":"2 44746  53.0557 114.8662 0001317  61.4237 298.6884 15.06402136122294","REV_AT_EPOCH":"12229","BSTAR":"0.00012406000000","ELEMENT_SET_NO":"999","ECCENTRICITY":"0.00013170","NORAD_CAT_ID":"44746","SEMIMAJOR_AXIS":"6925.342","MEAN_ELEMENT_THEORY":"SGP4","EPOCH":"2022-01-30T22:00:49.724352","RA_OF_ASC_NODE":"114.8662","INCLINATION":"53.0557","APOAPSIS":"548.119","EPHEMERIS_TYPE":"0","ARG_OF_PERICENTER":"61.4237","TIME_SYSTEM":"UTC","DECAY_DATE":null,"SITE":"AFETR","GP_ID":"194980605","MEAN_MOTION_DOT":"0.00001567","MEAN_MOTION":"15.06402136","PERIAPSIS":"546.295","OBJECT_TYPE":"PAYLOAD","CENTER_NAME":"EARTH","REF_FRAME":"TEME","RCS_SIZE":"LARGE","MEAN_ANOMALY":"298.6884","OBJECT_ID":"2019-074AK","PERIOD":"95.592","TLE_LINE1":"1 44746U 19074AK  22030.91724218  .00001567  00000-0  12406-3 0  9992","FILE":"3287903","OBJECT_NAME":"STARLINK-1041","LAUNCH_DATE":"2019-11-11","CLASSIFICATION_TYPE":"U","MEAN_MOTION_DDOT":"0.0000000000000"},{"LAUNCH_DATE":"2019-11-11","MEAN_MOTION_DDOT":"0.0000000000000","CLASSIFICATION_TYPE":"U","OBJECT_TYPE":"PAYLOAD","CENTER_NAME":"EARTH","REF_FRAME":"TEME","PERIAPSIS":"546.186","MEAN_MOTION":"15.06398521","TLE_LINE1":"1 44747U 19074AL  22030.61500210 -.00000516  00000-0 -15743-4 0  9997","PERIOD":"95.592","FILE":"3287903","OBJECT_NAME":"STARLINK-1042","RCS_SIZE":"LARGE","MEAN_ANOMALY":"291.2869","OBJECT_ID":"2019-074AL","ARG_OF_PERICENTER":"68.8279","APOAPSIS":"548.250","EPHEMERIS_TYPE":"0","TIME_SYSTEM":"UTC","DECAY_DATE":null,"RA_OF_ASC_NODE":"116.2223","INCLINATION":"53.0549","MEAN_MOTION_DOT":"-0.00000516","SITE":"AFETR","GP_ID":"194980855","COUNTRY_CODE":"US","TLE_LINE2":"2 44747  53.0549 116.2223 0001490  68.8279 291.2869 15.06398521122254","REV_AT_EPOCH":"12225","EPOCH":"2022-01-30T14:45:36.181440","ELEMENT_SET_NO":"999","BSTAR":"-0.00001574300000","ECCENTRICITY":"0.00014900","NORAD_CAT_ID":"44747","SEMIMAJOR_AXIS":"6925.353","MEAN_ELEMENT_THEORY":"SGP4"},{"OBJECT_NAME":"STARLINK-1043","FILE":"3287677","TLE_LINE1":"1 44748U 19074AM  22030.51179509  .00001565  00000-0  12391-3 0  9998","PERIOD":"95.592","OBJECT_ID":"2019-074AM","MEAN_ANOMALY":"279.9948","RCS_SIZE":"LARGE","REF_FRAME":"TEME","CENTER_NAME":"EARTH","OBJECT_TYPE":"PAYLOAD","PERIAPSIS":"546.289","MEAN_MOTION":"15.06399782","MEAN_MOTION_DDOT":"0.0000000000000","CLASSIFICATION_TYPE":"U","LAUNCH_DATE":"2019-11-11","EPOCH":"2022-01-30T12:16:59.095776","NORAD_CAT_ID":"44748","SEMIMAJOR_AXIS":"6925.349","MEAN_ELEMENT_THEORY":"SGP4","ECCENTRICITY":"0.00013360","BSTAR":"0.00012391000000","ELEMENT_SET_NO":"999","REV_AT_EPOCH":"12223","TLE_LINE2":"2 44748  53.0543 116.6842 0001336  80.1192 279.9948 15.06399782122239","COUNTRY_CODE":"US","MEAN_MOTION_DOT":"0.00001565","GP_ID":"194950265","SITE":"AFETR","DECAY_DATE":null,"TIME_SYSTEM":"UTC","APOAPSIS":"548.139","ARG_OF_PERICENTER":"80.1192","EPHEMERIS_TYPE":"0","INCLINATION":"53.0543","RA_OF_ASC_NODE":"116.6842"},{"LAUNCH_DATE":"2019-11-11","MEAN_MOTION_DDOT":"0.0000000000000","CLASSIFICATION_TYPE":"U","CENTER_NAME":"EARTH","OBJECT_TYPE":"PAYLOAD","REF_FRAME":"TEME","PERIAPSIS":"546.150","MEAN_MOTION":"15.06403788","PERIOD":"95.592","TLE_LINE1":"1 44751U 19074AQ  22030.92462131  .00001955  00000-0  15010-3 0  9997","OBJECT_NAME":"STARLINK-1046","FILE":"3287903","OBJECT_ID":"2019-074AQ","MEAN_ANOMALY":"292.1500","RCS_SIZE":"LARGE","TIME_SYSTEM":"UTC","ARG_OF_PERICENTER":"67.9650","APOAPSIS":"548.254","EPHEMERIS_TYPE":"0","DECAY_DATE":null,"INCLINATION":"53.0541","RA_OF_ASC_NODE":"114.8444","MEAN_MOTION_DOT":"0.00001955","SITE":"AFETR","GP_ID":"194981358","TLE_LINE2":"2 44751  53.0541 114.8444 0001519  67.9650 292.1500 15.06403788122293","REV_AT_EPOCH":"12229","COUNTRY_CODE":"US","EPOCH":"2022-01-30T22:11:27.281184","NORAD_CAT_ID":"44751","SEMIMAJOR_AXIS":"6925.337","MEAN_ELEMENT_THEORY":"SGP4","ECCENTRICITY":"0.00015190","BSTAR":"0.00015010000000","ELEMENT_SET_NO":"999"},{"OBJECT_TYPE":"PAYLOAD","CENTER_NAME":"EARTH","REF_FRAME":"TEME","MEAN_MOTION":"15.06393789","PERIAPSIS":"546.224","TLE_LINE1":"1 44752U 19074AR  22030.87854047  .00003430  00000-0  24910-3 0  9992","PERIOD":"95.593","FILE":"3287903","OBJECT_NAME":"STARLINK-1047","RCS_SIZE":"LARGE","OBJECT_ID":"2019-074AR","MEAN_ANOMALY":"298.3276","LAUNCH_DATE":"2019-11-11","MEAN_MOTION_DDOT":"0.0000000000000","CLASSIFICATION_TYPE":"U","COUNTRY_CODE":"US","TLE_LINE2":"2 44752  53.0556  95.0347 0001456  61.7860 298.3276 15.06393789122564","REV_AT_EPOCH":"12256","EPOCH":"2022-01-30T21:05:05.896608","ELEMENT_SET_NO":"999","BSTAR":"0.00024910000000","ECCENTRICITY":"0.00014560","SEMIMAJOR_AXIS":"6925.368","MEAN_ELEMENT_THEORY":"SGP4","NORAD_CAT_ID":"44752","EPHEMERIS_TYPE":"0","APOAPSIS":"548.241","ARG_OF_PERICENTER":"61.7860","TIME_SYSTEM":"UTC","DECAY_DATE":null,"RA_OF_ASC_NODE":"95.0347","INCLINATION":"53.0556","MEAN_MOTION_DOT":"0.00003430","SITE":"AFETR","GP_ID":"194980106"},{"TLE_LINE1":"1 44753U 19074AS  22030.81775672  .00007746  00000-0  53831-3 0  9991","PERIOD":"95.592","FILE":"3287903","OBJECT_NAME":"STARLINK-1048","RCS_SIZE":"LARGE","OBJECT_ID":"2019-074AS","MEAN_ANOMALY":"291.1970","OBJECT_TYPE":"PAYLOAD","CENTER_NAME":"EARTH","REF_FRAME":"TEME","PERIAPSIS":"546.273","MEAN_MOTION":"15.06403813","MEAN_MOTION_DDOT":"0.0000000000000","CLASSIFICATION_TYPE":"U","LAUNCH_DATE":"2019-11-11","EPOCH":"2022-01-30T19:37:34.180608","BSTAR":"0.00053831000000","ELEMENT_SET_NO":"999","ECCENTRICITY":"0.00013410","NORAD_CAT_ID":"44753","SEMIMAJOR_AXIS":"6925.337","MEAN_ELEMENT_THEORY":"SGP4","COUNTRY_CODE":"US","REV_AT_EPOCH":"12283","TLE_LINE2":"2 44753  53.0525  75.3157 0001341  68.9162 291.1970 15.06403813122830","MEAN_MOTION_DOT":"0.00007746","SITE":"AFETR","GP_ID":"194980356","APOAPSIS":"548.131","EPHEMERIS_TYPE":"0","ARG_OF_PERICENTER":"68.9162","TIME_SYSTEM":"UTC","DECAY_DATE":null,"INCLINATION":"53.0525","RA_OF_ASC_NODE":"75.3157"}];
